[{"OBJECT_NAME":"UNKNOWN","OBJECT_ID":"","EPOCH":"2026-03-09T14:24:04.134240","MEAN_MOTION":3.21816141,"ECCENTRICITY":0.6533286,"INCLINATION":20.3211,"RA_OF_ASC_NODE":223.833,"ARG_OF_PERICENTER":155.304,"MEAN_ANOMALY":260.2728,"EPHEMERIS_TYPE":0,"CLASSIFICATION_TYPE":"U","NORAD_CAT_ID":84232,"ELEMENT_SET_NO":999,"REV_AT_EPOCH":10746,"BSTAR":0.028543,"MEAN_MOTION_DOT":0.00040662,"MEAN_MOTION_DDOT":0},{"OBJECT_NAME":"UNKNOWN","OBJECT_ID":"","EPOCH":"2026-03-10T01:26:26.509056","MEAN_MOTION":2.62672294,"ECCENTRICITY":0.6890329,"INCLINATION":9.2919,"RA_OF_ASC_NODE":296.2005,"ARG_OF_PERICENTER":171.4122,"MEAN_ANOMALY":213.1207,"EPHEMERIS_TYPE":0,"CLASSIFICATION_TYPE":"U","NORAD_CAT_ID":84236,"ELEMENT_SET_NO":999,"REV_AT_EPOCH":11627,"BSTAR":0.0064621,"MEAN_MOTION_DOT":9.53e-6,"MEAN_MOTION_DDOT":0},{"OBJECT_NAME":"UNKNOWN","OBJECT_ID":"","EPOCH":"2026-03-08T23:38:16.910016","MEAN_MOTION":6.22272415,"ECCENTRICITY":0.4553538,"INCLINATION":23.8353,"RA_OF_ASC_NODE":40.8362,"ARG_OF_PERICENTER":87.8377,"MEAN_ANOMALY":321.8664,"EPHEMERIS_TYPE":0,"CLASSIFICATION_TYPE":"U","NORAD_CAT_ID":84292,"ELEMENT_SET_NO":999,"REV_AT_EPOCH":23343,"BSTAR":0.0031316,"MEAN_MOTION_DOT":5.068e-5,"MEAN_MOTION_DDOT":0},{"OBJECT_NAME":"UNKNOWN","OBJECT_ID":"","EPOCH":"2026-03-08T22:23:22.137504","MEAN_MOTION":2.05796031,"ECCENTRICITY":0.7211323,"INCLINATION":19.4473,"RA_OF_ASC_NODE":297.1488,"ARG_OF_PERICENTER":108.0696,"MEAN_ANOMALY":336.8691,"EPHEMERIS_TYPE":0,"CLASSIFICATION_TYPE":"U","NORAD_CAT_ID":84407,"ELEMENT_SET_NO":999,"REV_AT_EPOCH":7764,"BSTAR":0.017091,"MEAN_MOTION_DOT":3.23e-6,"MEAN_MOTION_DDOT":0},{"OBJECT_NAME":"UNKNOWN","OBJECT_ID":"","EPOCH":"2026-03-08T08:08:26.976768","MEAN_MOTION":2.19865125,"ECCENTRICITY":0.7116688,"INCLINATION":18.0126,"RA_OF_ASC_NODE":129.8671,"ARG_OF_PERICENTER":74.8363,"MEAN_ANOMALY":348.4001,"EPHEMERIS_TYPE":0,"CLASSIFICATION_TYPE":"U","NORAD_CAT_ID":84575,"ELEMENT_SET_NO":999,"REV_AT_EPOCH":6734,"BSTAR":-0.0027846,"MEAN_MOTION_DOT":-1.56e-6,"MEAN_MOTION_DDOT":0},{"OBJECT_NAME":"UNKNOWN","OBJECT_ID":"","EPOCH":"2026-03-09T12:50:58.031232","MEAN_MOTION":3.00142689,"ECCENTRICITY":0.6576193,"INCLINATION":2.0501,"RA_OF_ASC_NODE":191.7627,"ARG_OF_PERICENTER":154.6826,"MEAN_ANOMALY":117.2601,"EPHEMERIS_TYPE":0,"CLASSIFICATION_TYPE":"U","NORAD_CAT_ID":84932,"ELEMENT_SET_NO":999,"REV_AT_EPOCH":13438,"BSTAR":0.0064999,"MEAN_MOTION_DOT":7.55e-6,"MEAN_MOTION_DDOT":0},{"OBJECT_NAME":"UNKNOWN","OBJECT_ID":"","EPOCH":"2026-03-08T09:23:54.921696","MEAN_MOTION":14.41352805,"ECCENTRICITY":0.0045491,"INCLINATION":98.4336,"RA_OF_ASC_NODE":42.2269,"ARG_OF_PERICENTER":265.0611,"MEAN_ANOMALY":249.0716,"EPHEMERIS_TYPE":0,"CLASSIFICATION_TYPE":"U","NORAD_CAT_ID":85004,"ELEMENT_SET_NO":999,"REV_AT_EPOCH":64323,"BSTAR":0.00052947,"MEAN_MOTION_DOT":1.691e-5,"MEAN_MOTION_DDOT":0},{"OBJECT_NAME":"UNKNOWN","OBJECT_ID":"","EPOCH":"2026-02-27T02:23:30.679296","MEAN_MOTION":13.75239596,"ECCENTRICITY":0.0026672,"INCLINATION":99.2482,"RA_OF_ASC_NODE":282.6795,"ARG_OF_PERICENTER":51.5718,"MEAN_ANOMALY":101.6401,"EPHEMERIS_TYPE":0,"CLASSIFICATION_TYPE":"U","NORAD_CAT_ID":85010,"ELEMENT_SET_NO":999,"REV_AT_EPOCH":61441,"BSTAR":0.0010809,"MEAN_MOTION_DOT":9.96e-6,"MEAN_MOTION_DDOT":0},{"OBJECT_NAME":"UNKNOWN","OBJECT_ID":"","EPOCH":"2026-03-06T03:58:25.433760","MEAN_MOTION":14.62409823,"ECCENTRICITY":0.00141,"INCLINATION":74.0477,"RA_OF_ASC_NODE":238.5458,"ARG_OF_PERICENTER":126.0519,"MEAN_ANOMALY":234.1957,"EPHEMERIS_TYPE":0,"CLASSIFICATION_TYPE":"U","NORAD_CAT_ID":85015,"ELEMENT_SET_NO":999,"REV_AT_EPOCH":65480,"BSTAR":0.00014888,"MEAN_MOTION_DOT":7.24e-6,"MEAN_MOTION_DDOT":0},{"OBJECT_NAME":"UNKNOWN","OBJECT_ID":"","EPOCH":"2026-03-08T13:56:10.992192","MEAN_MOTION":14.80146945,"ECCENTRICITY":0.0002389,"INCLINATION":99.8399,"RA_OF_ASC_NODE":106.8631,"ARG_OF_PERICENTER":110.0444,"MEAN_ANOMALY":42.7966,"EPHEMERIS_TYPE":0,"CLASSIFICATION_TYPE":"U","NORAD_CAT_ID":85023,"ELEMENT_SET_NO":999,"REV_AT_EPOCH":64150,"BSTAR":0.0060052,"MEAN_MOTION_DOT":0.00045826,"MEAN_MOTION_DDOT":0},{"OBJECT_NAME":"UNKNOWN","OBJECT_ID":"","EPOCH":"2026-03-08T21:21:42.073920","MEAN_MOTION":13.74284752,"ECCENTRICITY":0.0170259,"INCLINATION":66.0396,"RA_OF_ASC_NODE":250.5413,"ARG_OF_PERICENTER":144.2713,"MEAN_ANOMALY":216.9887,"EPHEMERIS_TYPE":0,"CLASSIFICATION_TYPE":"U","NORAD_CAT_ID":85027,"ELEMENT_SET_NO":999,"REV_AT_EPOCH":61645,"BSTAR":0.0002788,"MEAN_MOTION_DOT":2.14e-6,"MEAN_MOTION_DDOT":0},{"OBJECT_NAME":"UNKNOWN","OBJECT_ID":"","EPOCH":"2026-03-06T21:14:57.319296","MEAN_MOTION":13.46608113,"ECCENTRICITY":0.0107126,"INCLINATION":102.1703,"RA_OF_ASC_NODE":53.979,"ARG_OF_PERICENTER":191.5163,"MEAN_ANOMALY":168.3506,"EPHEMERIS_TYPE":0,"CLASSIFICATION_TYPE":"U","NORAD_CAT_ID":85047,"ELEMENT_SET_NO":999,"REV_AT_EPOCH":58797,"BSTAR":0.019405,"MEAN_MOTION_DOT":0.00012078,"MEAN_MOTION_DDOT":0},{"OBJECT_NAME":"UNKNOWN","OBJECT_ID":"","EPOCH":"2026-03-07T22:38:09.721248","MEAN_MOTION":12.77676496,"ECCENTRICITY":0.0272199,"INCLINATION":102.3999,"RA_OF_ASC_NODE":63.5648,"ARG_OF_PERICENTER":23.8493,"MEAN_ANOMALY":4.7362,"EPHEMERIS_TYPE":0,"CLASSIFICATION_TYPE":"U","NORAD_CAT_ID":85061,"ELEMENT_SET_NO":999,"REV_AT_EPOCH":56666,"BSTAR":0.018471,"MEAN_MOTION_DOT":4.701e-5,"MEAN_MOTION_DDOT":0},{"OBJECT_NAME":"UNKNOWN","OBJECT_ID":"","EPOCH":"2026-03-09T16:02:32.153280","MEAN_MOTION":14.40795788,"ECCENTRICITY":0.0013903,"INCLINATION":74.0441,"RA_OF_ASC_NODE":62.0647,"ARG_OF_PERICENTER":268.6364,"MEAN_ANOMALY":215.7096,"EPHEMERIS_TYPE":0,"CLASSIFICATION_TYPE":"U","NORAD_CAT_ID":85100,"ELEMENT_SET_NO":999,"REV_AT_EPOCH":64586,"BSTAR":0.0001568,"MEAN_MOTION_DOT":4.76e-6,"MEAN_MOTION_DDOT":0},{"OBJECT_NAME":"UNKNOWN","OBJECT_ID":"","EPOCH":"2026-03-09T06:26:29.922432","MEAN_MOTION":13.7303155,"ECCENTRICITY":0.0010845,"INCLINATION":100.0524,"RA_OF_ASC_NODE":178.3831,"ARG_OF_PERICENTER":151.0385,"MEAN_ANOMALY":237.6955,"EPHEMERIS_TYPE":0,"CLASSIFICATION_TYPE":"U","NORAD_CAT_ID":85106,"ELEMENT_SET_NO":999,"REV_AT_EPOCH":61494,"BSTAR":0.00087414,"MEAN_MOTION_DOT":7.59e-6,"MEAN_MOTION_DDOT":0},{"OBJECT_NAME":"UNKNOWN","OBJECT_ID":"","EPOCH":"2026-03-08T10:50:28.822272","MEAN_MOTION":14.83080407,"ECCENTRICITY":0.000647,"INCLINATION":98.3991,"RA_OF_ASC_NODE":300.5434,"ARG_OF_PERICENTER":230.0721,"MEAN_ANOMALY":129.9923,"EPHEMERIS_TYPE":0,"CLASSIFICATION_TYPE":"U","NORAD_CAT_ID":85151,"ELEMENT_SET_NO":999,"REV_AT_EPOCH":49221,"BSTAR":0.0048354,"MEAN_MOTION_DOT":0.00039543,"MEAN_MOTION_DDOT":0},{"OBJECT_NAME":"UNKNOWN","OBJECT_ID":"","EPOCH":"2026-03-08T15:32:05.156160","MEAN_MOTION":13.7167073,"ECCENTRICITY":0.0216769,"INCLINATION":99.8613,"RA_OF_ASC_NODE":216.0055,"ARG_OF_PERICENTER":94.9429,"MEAN_ANOMALY":331.7966,"EPHEMERIS_TYPE":0,"CLASSIFICATION_TYPE":"U","NORAD_CAT_ID":85210,"ELEMENT_SET_NO":999,"REV_AT_EPOCH":61393,"BSTAR":0.00037858,"MEAN_MOTION_DOT":3.59e-6,"MEAN_MOTION_DDOT":0}]
