UNKNOWN                 
1 84232U          26068.60004785  .00040662  00000+0  28543-1 0  9991
2 84232  20.3211 223.8330 6533286 155.3040 260.2728  3.21816141107464
UNKNOWN                 
1 84236U          26069.06002904  .00000953  00000+0  64621-2 0  9994
2 84236   9.2919 296.2005 6890329 171.4122 213.1207  2.62672294116277
UNKNOWN                 
1 84292U          26067.98491794  .00005068  00000+0  31316-2 0  9991
2 84292  23.8353  40.8362 4553538  87.8377 321.8664  6.22272415233433
UNKNOWN                 
1 84407U          26067.93289511  .00000323  00000+0  17091-1 0  9998
2 84407  19.4473 297.1488 7211323 108.0696 336.8691  2.05796031 77644
UNKNOWN                 
1 84575U          26067.33920112 -.00000156  00000+0 -27846-2 0  9993
2 84575  18.0126 129.8671 7116688  74.8363 348.4001  2.19865125 67340
UNKNOWN                 
1 84932U          26068.53539388  .00000755  00000+0  64999-2 0  9997
2 84932   2.0501 191.7627 6576193 154.6826 117.2601  3.00142689134388
UNKNOWN                 
1 85004U          26067.39160789  .00001691  00000+0  52947-3 0  9997
2 85004  98.4336  42.2269 0045491 265.0611 249.0716 14.41352805643231
UNKNOWN                 
1 85010U          26058.09966064  .00000996  00000+0  10809-2 0  9998
2 85010  99.2482 282.6795 0026672  51.5718 101.6401 13.75239596614418
UNKNOWN                 
1 85015U          26065.16557215  .00000724  00000+0  14888-3 0  9994
2 85015  74.0477 238.5458 0014100 126.0519 234.1957 14.62409823654808
UNKNOWN                 
1 85023U          26067.58068278  .00045826  00000+0  60052-2 0  9992
2 85023  99.8399 106.8631 0002389 110.0444  42.7966 14.80146945641500
UNKNOWN                 
1 85027U          26067.89007030  .00000214  00000+0  27880-3 0  9994
2 85027  66.0396 250.5413 0170259 144.2713 216.9887 13.74284752616456
UNKNOWN                 
1 85047U          26065.88538564  .00012078  00000+0  19405-1 0  9997
2 85047 102.1703  53.9790 0107126 191.5163 168.3506 13.46608113587974
UNKNOWN                 
1 85061U          26066.94316807  .00004701  00000+0  18471-1 0  9991
2 85061 102.3999  63.5648 0272199  23.8493   4.7362 12.77676496566662
UNKNOWN                 
1 85100U          26068.66842770  .00000476  00000+0  15680-3 0  9995
2 85100  74.0441  62.0647 0013903 268.6364 215.7096 14.40795788645864
UNKNOWN                 
1 85106U          26068.26840188  .00000759  00000+0  87414-3 0  9996
2 85106 100.0524 178.3831 0010845 151.0385 237.6955 13.73031550614945
UNKNOWN                 
1 85151U          26067.45172248  .00039543  00000+0  48354-2 0  9993
2 85151  98.3991 300.5434 0006470 230.0721 129.9923 14.83080407492210
UNKNOWN                 
1 85210U          26067.64728190  .00000359  00000+0  37858-3 0  9994
2 85210  99.8613 216.0055 0216769  94.9429 331.7966 13.71670730613933
